ONEWEB-0608             
1 54672U 22166AG  26161.47161507  .00000070  00000+0  13799-3 0  9996
2 54672  87.9266 245.3024 0002391  89.3600 270.7808 13.21827858170662
ONEWEB-0610             
1 54673U 22166AH  26161.52711316 -.00000079  00000+0 -22375-3 0  9993
2 54673  87.9254 245.3063 0002215  83.0551 277.0835 13.21824175170573
ONEWEB-0611             
1 54674U 22166AJ  26161.52038641 -.00000020  00000+0 -80577-4 0  9992
2 54674  87.9254 245.3036 0001996 102.7656 257.3701 13.21827806170560
ONEWEB-0612             
1 54675U 22166AK  26161.45815806 -.00000027  00000+0 -97097-4 0  9993
2 54675  87.9264 245.3108 0002098  95.1620 264.9754 13.21824971170542
ONEWEB-0615             
1 54676U 22166AL  26161.51367922  .00000001  00000+0 -27962-4 0  9997
2 54676  87.9259 245.3151 0001810 104.5924 255.5411 13.21826406170561
ONEWEB-0655             
1 54677U 22166AM  26161.49012861  .00000100  00000+0  21125-3 0  9997
2 54677  87.9256 245.3210 0001862  93.2466 266.8880 13.21826759170552
ONEWEB-0659             
1 54678U 22166AN  26161.50695084  .00000259  00000+0  59522-3 0  9991
2 54678  87.9254 245.3176 0002055 101.9128 258.2236 13.21826374170642
ONEWEB-0685             
1 54679U 22166AP  26161.50713941  .00000045  00000+0  78563-4 0  9995
2 54679  87.9253 245.3100 0002087  89.5501 270.5872 13.21847371170531
ONEWEB-0712             
1 54680U 22166AQ  26161.44828352  .00000008  00000+0 -12959-4 0  9990
2 54680  87.9103 230.1126 0001661  89.2948 270.8373 13.16593856171176
ONEWEB-0714             
1 54681U 22166AR  26161.51197105  .00000043  00000+0  72757-4 0  9994
2 54681  87.9254 245.3062 0001720  96.7252 263.4078 13.21824126170653
ONEWEB-0532             
1 55140U 23004A   26161.50283227  .00000068  00000+0  14183-3 0  9992
2 55140  87.9138   7.1947 0002196  89.9525 270.1859 13.17648565166705
ONEWEB-0533             
1 55141U 23004B   26161.51983265  .00000471  00000+0  12747-2 0  9994
2 55141  87.8945 351.9969 0001880  83.2208 276.9134 13.12442980167180
ONEWEB-0541             
1 55142U 23004C   26161.16299603 -.00000061  00000+0 -20857-3 0  9991
2 55142  87.8900  22.4556 0001828  90.0401 270.0937 13.11416323165025
ONEWEB-0543             
1 55143U 23004D   26161.48673534  .00000071  00000+0  14784-3 0  9997
2 55143  87.9157 336.8035 0001623  88.5036 271.6282 13.18685250168818
ONEWEB-0544             
1 55144U 23004E   26161.47999439  .00000045  00000+0  82300-4 0  9993
2 55144  87.9156 336.8045 0001666  95.8989 264.2333 13.18685436168815
ONEWEB-0560             
1 55145U 23004F   26161.24562441  .00000012  00000+0 -16988-5 0  9993
2 55145  87.9158 336.8405 0001579  95.6116 264.5197 13.18686465168792
ONEWEB-0565             
1 55146U 23004G   26161.23887547  .00000028  00000+0  39404-4 0  9993
2 55146  87.9149 336.8705 0001908 104.1672 255.9672 13.18684550168789
ONEWEB-0567             
1 55147U 23004H   26161.23213590  .00000026  00000+0  32795-4 0  9999
2 55147  87.9158 336.8554 0001769 103.4742 256.6588 13.18685193168785
ONEWEB-0569             
1 55148U 23004J   26160.99978097 -.00000181  00000+0 -53089-3 0  9994
2 55148  87.8958 321.6504 0001276 123.2189 236.9063 13.13469073169230
ONEWEB-0570             
1 55149U 23004K   26161.52719799  .00000077  00000+0  16299-3 0  9991
2 55149  87.9156 336.7945 0002226  96.5064 263.6322 13.18684936168818
ONEWEB-0571             
1 55150U 23004L   26161.52047100  .00000895  00000+0  22361-2 0  9997
2 55150  87.9158 336.7951 0001954 130.9237 229.2064 13.18683785168824
ONEWEB-0572             
1 55151U 23004M   26161.07758640  .00000066  00000+0  13614-3 0  9998
2 55151  87.9136   7.2802 0001870  93.4676 266.6670 13.17647847166546
ONEWEB-0573             
1 55152U 23004N   26161.51371558  .00000075  00000+0  15745-3 0  9994
2 55152  87.9159 336.7980 0001983 118.3145 241.8188 13.18686143168816
ONEWEB-0588             
1 55153U 23004P   26161.50696703  .00000060  00000+0  12062-3 0  9999
2 55153  87.9156 336.7993 0002280  98.7994 261.3396 13.18684778168812
ONEWEB-0598             
1 55154U 23004Q   26161.36985138  .00000557  00000+0  15350-2 0  9990
2 55154  87.8889  22.4261 0001453 107.3182 252.8105 13.11417912165007
ONEWEB-0599             
1 55155U 23004R   26161.49439558  .00000046  00000+0  86156-4 0  9992
2 55155  87.9136   7.1958 0001635  85.9155 274.2163 13.17648268166605
ONEWEB-0614             
1 55156U 23004S   26161.36475824  .00000425  00000+0  11632-2 0  9991
2 55156  87.8889  22.4358 0002046  82.8651 277.2710 13.11419028164948
ONEWEB-0616             
1 55157U 23004T   26161.08097031  .00000034  00000+0  54896-4 0  9998
2 55157  87.9138   7.2815 0001168  61.3294 298.7955 13.17648334166766
ONEWEB-0617             
1 55158U 23004U   26161.35289279 -.00000009  00000+0 -61799-4 0  9990
2 55158  87.8898  22.4289 0002246  87.1711 272.9674 13.11419265164966
ONEWEB-0618             
1 55159U 23004V   26161.51142279  .00003227  00000+0  18036-3 0  9995
2 55159  86.9102 180.3444 0010457 330.2416  29.8228 15.13094303181250
ONEWEB-0619             
1 55160U 23004W   26161.49271505  .00000064  00000+0  13039-3 0  9993
2 55160  87.9147   7.1797 0002053  76.1500 283.9860 13.17648476166719
