OBJECT_NAME,OBJECT_ID,EPOCH,MEAN_MOTION,ECCENTRICITY,INCLINATION,RA_OF_ASC_NODE,ARG_OF_PERICENTER,MEAN_ANOMALY,EPHEMERIS_TYPE,CLASSIFICATION_TYPE,NORAD_CAT_ID,ELEMENT_SET_NO,REV_AT_EPOCH,BSTAR,MEAN_MOTION_DOT,MEAN_MOTION_DDOT
ONEWEB-0608,2022-166AG,2026-06-10T11:19:07.542048,13.21827858,.0002391,87.9266,245.3024,89.3600,270.7808,0,U,54672,999,17066,.13799E-3,.7E-6,0
ONEWEB-0610,2022-166AH,2026-06-10T12:39:02.577024,13.21824175,.0002215,87.9254,245.3063,83.0551,277.0835,0,U,54673,999,17057,-.22375E-3,-.79E-6,0
ONEWEB-0611,2022-166AJ,2026-06-10T12:29:21.385824,13.21827806,.0001996,87.9254,245.3036,102.7656,257.3701,0,U,54674,999,17056,-.80577E-4,-.2E-6,0
ONEWEB-0612,2022-166AK,2026-06-10T10:59:44.856384,13.21824971,.0002098,87.9264,245.3108,95.1620,264.9754,0,U,54675,999,17054,-.97097E-4,-.27E-6,0
ONEWEB-0615,2022-166AL,2026-06-10T12:19:41.884608,13.21826406,.000181,87.9259,245.3151,104.5924,255.5411,0,U,54676,999,17056,-.27962E-4,.1E-7,0
ONEWEB-0655,2022-166AM,2026-06-10T11:45:47.111904,13.21826759,.0001862,87.9256,245.3210,93.2466,266.8880,0,U,54677,999,17055,.21125E-3,.1E-5,0
ONEWEB-0659,2022-166AN,2026-06-10T12:10:00.552576,13.21826374,.0002055,87.9254,245.3176,101.9128,258.2236,0,U,54678,999,17064,.59522E-3,.259E-5,0
ONEWEB-0685,2022-166AP,2026-06-10T12:10:16.845024,13.21847371,.0002087,87.9253,245.3100,89.5501,270.5872,0,U,54679,999,17053,.78563E-4,.45E-6,0
ONEWEB-0712,2022-166AQ,2026-06-10T10:45:31.696128,13.16593856,.0001661,87.9103,230.1126,89.2948,270.8373,0,U,54680,999,17117,-.12959E-4,.8E-7,0
ONEWEB-0714,2022-166AR,2026-06-10T12:17:14.298720,13.21824126,.000172,87.9254,245.3062,96.7252,263.4078,0,U,54681,999,17065,.72757E-4,.43E-6,0
ONEWEB-0532,2023-004A,2026-06-10T12:04:04.708128,13.17648565,.0002196,87.9138,7.1947,89.9525,270.1859,0,U,55140,999,16670,.14183E-3,.68E-6,0
ONEWEB-0533,2023-004B,2026-06-10T12:28:33.540960,13.12442980,.000188,87.8945,351.9969,83.2208,276.9134,0,U,55141,999,16718,.12747E-2,.471E-5,0
ONEWEB-0541,2023-004C,2026-06-10T03:54:42.856992,13.11416323,.0001828,87.8900,22.4556,90.0401,270.0937,0,U,55142,999,16502,-.20857E-3,-.61E-6,0
ONEWEB-0543,2023-004D,2026-06-10T11:40:53.933376,13.18685250,.0001623,87.9157,336.8035,88.5036,271.6282,0,U,55143,999,16881,.14784E-3,.71E-6,0
ONEWEB-0544,2023-004E,2026-06-10T11:31:11.515296,13.18685436,.0001666,87.9156,336.8045,95.8989,264.2333,0,U,55144,999,16881,.823E-4,.45E-6,0
ONEWEB-0560,2023-004F,2026-06-10T05:53:41.949024,13.18686465,.0001579,87.9158,336.8405,95.6116,264.5197,0,U,55145,999,16879,-.16988E-5,.12E-6,0
ONEWEB-0565,2023-004G,2026-06-10T05:43:58.840608,13.18684550,.0001908,87.9149,336.8705,104.1672,255.9672,0,U,55146,999,16878,.39404E-4,.28E-6,0
ONEWEB-0567,2023-004H,2026-06-10T05:34:16.541760,13.18685193,.0001769,87.9158,336.8554,103.4742,256.6588,0,U,55147,999,16878,.32795E-4,.26E-6,0
ONEWEB-0569,2023-004J,2026-06-09T23:59:41.075808,13.13469073,.00012765,87.8958,321.6504,123.2189,236.9063,0,U,55148,999,16923,-.53088741E-3,-.181E-5,0
ONEWEB-0570,2023-004K,2026-06-10T12:39:09.906336,13.18684936,.0002226,87.9156,336.7945,96.5064,263.6322,0,U,55149,999,16881,.16299E-3,.77E-6,0
ONEWEB-0571,2023-004L,2026-06-10T12:29:28.694400,13.18683785,.0001954,87.9158,336.7951,130.9237,229.2064,0,U,55150,999,16882,.22361E-2,.895E-5,0
ONEWEB-0572,2023-004M,2026-06-10T01:51:43.464960,13.17647847,.000187,87.9136,7.2802,93.4676,266.6670,0,U,55151,999,16654,.13614E-3,.66E-6,0
ONEWEB-0573,2023-004N,2026-06-10T12:19:45.026112,13.18686143,.0001983,87.9159,336.7980,118.3145,241.8188,0,U,55152,999,16881,.15745E-3,.75E-6,0
ONEWEB-0588,2023-004P,2026-06-10T12:10:01.951392,13.18684778,.000228,87.9156,336.7993,98.7994,261.3396,0,U,55153,999,16881,.12062E-3,.6E-6,0
ONEWEB-0598,2023-004Q,2026-06-10T08:52:35.159232,13.11417912,.0001453,87.8889,22.4261,107.3182,252.8105,0,U,55154,999,16500,.1535E-2,.557E-5,0
ONEWEB-0599,2023-004R,2026-06-10T11:51:55.778112,13.17648268,.0001635,87.9136,7.1958,85.9155,274.2163,0,U,55155,999,16660,.86156E-4,.46E-6,0
ONEWEB-0614,2023-004S,2026-06-10T08:45:15.111936,13.11419028,.0002046,87.8889,22.4358,82.8651,277.2710,0,U,55156,999,16494,.11632E-2,.425E-5,0
ONEWEB-0616,2023-004T,2026-06-10T01:56:35.834784,13.17648334,.0001168,87.9138,7.2815,61.3294,298.7955,0,U,55157,999,16676,.54896E-4,.34E-6,0
ONEWEB-0617,2023-004U,2026-06-10T08:28:09.937056,13.11419265,.0002246,87.8898,22.4289,87.1711,272.9674,0,U,55158,999,16496,-.61799E-4,-.9E-7,0
ONEWEB-0618,2023-004V,2026-06-10T12:16:26.929056,15.13094303,.0010457,86.9102,180.3444,330.2416,29.8228,0,U,55159,999,18125,.18036E-3,.3227E-4,0
ONEWEB-0619,2023-004W,2026-06-10T11:49:30.580320,13.17648476,.0002053,87.9147,7.1797,76.1500,283.9860,0,U,55160,999,16671,.13039E-3,.64E-6,0
